STARLINK-36732          
1 67813U 26032S   26071.13334907  .00167840  00000+0  11026-2 0  9991
2 67813  97.2853 257.8229 0001657  81.2385 278.9068 15.75223189  5178
STARLINK-36767          
1 67814U 26032T   26071.15310838  .00132105  00000+0  87175-3 0  9996
2 67814  97.2838 257.7959 0001336  83.9091 276.2326 15.75221281  5177
STARLINK-36797          
1 67815U 26032U   26071.14428558  .00121025  00000+0  79996-3 0  9996
2 67815  97.2849 257.8092 0001640  61.2844 298.8586 15.75214546  5176
STARLINK-36343          
1 67816U 26032V   26071.18805409  .00185033  00000+0  12125-2 0  9994
2 67816  97.2848 257.9010 0001414  74.1772 285.9648 15.75231523  5180
STARLINK-36756          
1 67817U 26032W   26071.13546258  .00161633  00000+0  10621-2 0  9993
2 67817  97.2849 257.8200 0001413  90.7647 269.3780 15.75233958  5161
STARLINK-36346          
1 67818U 26032X   26071.18381682  .00187608  00000+0  12288-2 0  9998
2 67818  97.2848 257.9077 0001297  72.4197 287.7209 15.75236804  5186
STARLINK-36788          
1 67819U 26032Y   26071.14640546  .00142608  00000+0  93995-3 0  9998
2 67819  97.2846 257.8053 0001235  82.7555 277.3851 15.75218342  5176
STARLINK-36353          
1 67820U 26032Z   26071.14252419  .00152722  00000+0  10052-2 0  9998
2 67820  97.2848 257.8102 0001405  72.7614 287.3805 15.75221813  5176
STARLINK-36644          
1 67821U 26033A   26071.16668981 -.01952502  00000+0 -12154-1 0  9998
2 67821  42.9991 256.3542 0001626 272.5921 142.0393 15.79214745  5068
STARLINK-36643          
1 67822U 26033B   26071.16668981 -.01943958  00000+0 -14876-1 0  9997
2 67822  42.9992 256.3941 0001882 272.4821 126.0963 15.74615601  5061
STARLINK-36646          
1 67823U 26033C   26071.16668981 -.01951178  00000+0 -13035-1 0  9997
2 67823  42.9992 256.3446 0001913 277.4503 140.9078 15.77664339  5066
STARLINK-36647          
1 67824U 26033D   26071.16668981 -.01947249  00000+0 -14154-1 0  9995
2 67824  42.9991 256.3554 0001837 273.3058 140.6874 15.75782385  5062
