CCSDS_OMM_VERS = 2.0
CREATION_DATE  = 
ORIGINATOR     = 

OBJECT_NAME    = STARLINK-36732
OBJECT_ID      = 2026-032S
CENTER_NAME    = EARTH
REF_FRAME      = TEME
TIME_SYSTEM    = UTC
MEAN_ELEMENT_THEORY = SGP/SGP4

EPOCH          = 2026-03-12T03:12:01.359648
MEAN_MOTION    = 15.75223189
ECCENTRICITY   = .0001657
INCLINATION    = 97.2853
RA_OF_ASC_NODE = 257.8229
ARG_OF_PERICENTER = 81.2385
MEAN_ANOMALY   = 278.9068

EPHEMERIS_TYPE = 0
CLASSIFICATION_TYPE = U
NORAD_CAT_ID   = 67813
ELEMENT_SET_NO = 999
REV_AT_EPOCH   = 517
BSTAR          = .11026E-2
MEAN_MOTION_DOT = .16784E-2
MEAN_MOTION_DDOT = 0

CCSDS_OMM_VERS = 2.0
CREATION_DATE  = 
ORIGINATOR     = 

OBJECT_NAME    = STARLINK-36767
OBJECT_ID      = 2026-032T
CENTER_NAME    = EARTH
REF_FRAME      = TEME
TIME_SYSTEM    = UTC
MEAN_ELEMENT_THEORY = SGP/SGP4

EPOCH          = 2026-03-12T03:40:28.564032
MEAN_MOTION    = 15.75221281
ECCENTRICITY   = .0001336
INCLINATION    = 97.2838
RA_OF_ASC_NODE = 257.7959
ARG_OF_PERICENTER = 83.9091
MEAN_ANOMALY   = 276.2326

EPHEMERIS_TYPE = 0
CLASSIFICATION_TYPE = U
NORAD_CAT_ID   = 67814
ELEMENT_SET_NO = 999
REV_AT_EPOCH   = 517
BSTAR          = .87175E-3
MEAN_MOTION_DOT = .132105E-2
MEAN_MOTION_DDOT = 0

CCSDS_OMM_VERS = 2.0
CREATION_DATE  = 
ORIGINATOR     = 

OBJECT_NAME    = STARLINK-36797
OBJECT_ID      = 2026-032U
CENTER_NAME    = EARTH
REF_FRAME      = TEME
TIME_SYSTEM    = UTC
MEAN_ELEMENT_THEORY = SGP/SGP4

EPOCH          = 2026-03-12T03:27:46.274112
MEAN_MOTION    = 15.75214546
ECCENTRICITY   = .000164
INCLINATION    = 97.2849
RA_OF_ASC_NODE = 257.8092
ARG_OF_PERICENTER = 61.2844
MEAN_ANOMALY   = 298.8586

EPHEMERIS_TYPE = 0
CLASSIFICATION_TYPE = U
NORAD_CAT_ID   = 67815
ELEMENT_SET_NO = 999
REV_AT_EPOCH   = 517
BSTAR          = .79996E-3
MEAN_MOTION_DOT = .121025E-2
MEAN_MOTION_DDOT = 0

CCSDS_OMM_VERS = 2.0
CREATION_DATE  = 
ORIGINATOR     = 

OBJECT_NAME    = STARLINK-36343
OBJECT_ID      = 2026-032V
CENTER_NAME    = EARTH
REF_FRAME      = TEME
TIME_SYSTEM    = UTC
MEAN_ELEMENT_THEORY = SGP/SGP4

EPOCH          = 2026-03-12T04:30:47.873376
MEAN_MOTION    = 15.75231523
ECCENTRICITY   = .0001414
INCLINATION    = 97.2848
RA_OF_ASC_NODE = 257.9010
ARG_OF_PERICENTER = 74.1772
MEAN_ANOMALY   = 285.9648

EPHEMERIS_TYPE = 0
CLASSIFICATION_TYPE = U
NORAD_CAT_ID   = 67816
ELEMENT_SET_NO = 999
REV_AT_EPOCH   = 518
BSTAR          = .12125E-2
MEAN_MOTION_DOT = .185033E-2
MEAN_MOTION_DDOT = 0

CCSDS_OMM_VERS = 2.0
CREATION_DATE  = 
ORIGINATOR     = 

OBJECT_NAME    = STARLINK-36756
OBJECT_ID      = 2026-032W
CENTER_NAME    = EARTH
REF_FRAME      = TEME
TIME_SYSTEM    = UTC
MEAN_ELEMENT_THEORY = SGP/SGP4

EPOCH          = 2026-03-12T03:15:03.966912
MEAN_MOTION    = 15.75233958
ECCENTRICITY   = .0001413
INCLINATION    = 97.2849
RA_OF_ASC_NODE = 257.8200
ARG_OF_PERICENTER = 90.7647
MEAN_ANOMALY   = 269.3780

EPHEMERIS_TYPE = 0
CLASSIFICATION_TYPE = U
NORAD_CAT_ID   = 67817
ELEMENT_SET_NO = 999
REV_AT_EPOCH   = 516
BSTAR          = .10621E-2
MEAN_MOTION_DOT = .161633E-2
MEAN_MOTION_DDOT = 0

CCSDS_OMM_VERS = 2.0
CREATION_DATE  = 
ORIGINATOR     = 

OBJECT_NAME    = STARLINK-36346
OBJECT_ID      = 2026-032X
CENTER_NAME    = EARTH
REF_FRAME      = TEME
TIME_SYSTEM    = UTC
MEAN_ELEMENT_THEORY = SGP/SGP4

EPOCH          = 2026-03-12T04:24:41.773248
MEAN_MOTION    = 15.75236804
ECCENTRICITY   = .0001297
INCLINATION    = 97.2848
RA_OF_ASC_NODE = 257.9077
ARG_OF_PERICENTER = 72.4197
MEAN_ANOMALY   = 287.7209

EPHEMERIS_TYPE = 0
CLASSIFICATION_TYPE = U
NORAD_CAT_ID   = 67818
ELEMENT_SET_NO = 999
REV_AT_EPOCH   = 518
BSTAR          = .12288E-2
MEAN_MOTION_DOT = .187608E-2
MEAN_MOTION_DDOT = 0

CCSDS_OMM_VERS = 2.0
CREATION_DATE  = 
ORIGINATOR     = 

OBJECT_NAME    = STARLINK-36788
OBJECT_ID      = 2026-032Y
CENTER_NAME    = EARTH
REF_FRAME      = TEME
TIME_SYSTEM    = UTC
MEAN_ELEMENT_THEORY = SGP/SGP4

EPOCH          = 2026-03-12T03:30:49.431744
MEAN_MOTION    = 15.75218342
ECCENTRICITY   = .0001235
INCLINATION    = 97.2846
RA_OF_ASC_NODE = 257.8053
ARG_OF_PERICENTER = 82.7555
MEAN_ANOMALY   = 277.3851

EPHEMERIS_TYPE = 0
CLASSIFICATION_TYPE = U
NORAD_CAT_ID   = 67819
ELEMENT_SET_NO = 999
REV_AT_EPOCH   = 517
BSTAR          = .93995E-3
MEAN_MOTION_DOT = .142608E-2
MEAN_MOTION_DDOT = 0

CCSDS_OMM_VERS = 2.0
CREATION_DATE  = 
ORIGINATOR     = 

OBJECT_NAME    = STARLINK-36353
OBJECT_ID      = 2026-032Z
CENTER_NAME    = EARTH
REF_FRAME      = TEME
TIME_SYSTEM    = UTC
MEAN_ELEMENT_THEORY = SGP/SGP4

EPOCH          = 2026-03-12T03:25:14.090016
MEAN_MOTION    = 15.75221813
ECCENTRICITY   = .0001405
INCLINATION    = 97.2848
RA_OF_ASC_NODE = 257.8102
ARG_OF_PERICENTER = 72.7614
MEAN_ANOMALY   = 287.3805

EPHEMERIS_TYPE = 0
CLASSIFICATION_TYPE = U
NORAD_CAT_ID   = 67820
ELEMENT_SET_NO = 999
REV_AT_EPOCH   = 517
BSTAR          = .10052E-2
MEAN_MOTION_DOT = .152722E-2
MEAN_MOTION_DDOT = 0

CCSDS_OMM_VERS = 2.0
CREATION_DATE  = 
ORIGINATOR     = 

OBJECT_NAME    = STARLINK-36644
OBJECT_ID      = 2026-033A
CENTER_NAME    = EARTH
REF_FRAME      = TEME
TIME_SYSTEM    = UTC
MEAN_ELEMENT_THEORY = SGP/SGP4

EPOCH          = 2026-03-12T04:00:01.999584
MEAN_MOTION    = 15.79214745
ECCENTRICITY   = .0001626
INCLINATION    = 42.9991
RA_OF_ASC_NODE = 256.3542
ARG_OF_PERICENTER = 272.5921
MEAN_ANOMALY   = 142.0393

EPHEMERIS_TYPE = 0
CLASSIFICATION_TYPE = U
NORAD_CAT_ID   = 67821
ELEMENT_SET_NO = 999
REV_AT_EPOCH   = 506
BSTAR          = -.12154E-1
MEAN_MOTION_DOT = -.1952502E-1
MEAN_MOTION_DDOT = 0

CCSDS_OMM_VERS = 2.0
CREATION_DATE  = 
ORIGINATOR     = 

OBJECT_NAME    = STARLINK-36643
OBJECT_ID      = 2026-033B
CENTER_NAME    = EARTH
REF_FRAME      = TEME
TIME_SYSTEM    = UTC
MEAN_ELEMENT_THEORY = SGP/SGP4

EPOCH          = 2026-03-12T04:00:01.999584
MEAN_MOTION    = 15.74615601
ECCENTRICITY   = .0001882
INCLINATION    = 42.9992
RA_OF_ASC_NODE = 256.3941
ARG_OF_PERICENTER = 272.4821
MEAN_ANOMALY   = 126.0963

EPHEMERIS_TYPE = 0
CLASSIFICATION_TYPE = U
NORAD_CAT_ID   = 67822
ELEMENT_SET_NO = 999
REV_AT_EPOCH   = 506
BSTAR          = -.14876E-1
MEAN_MOTION_DOT = -.1943958E-1
MEAN_MOTION_DDOT = 0

CCSDS_OMM_VERS = 2.0
CREATION_DATE  = 
ORIGINATOR     = 

OBJECT_NAME    = STARLINK-36646
OBJECT_ID      = 2026-033C
CENTER_NAME    = EARTH
REF_FRAME      = TEME
TIME_SYSTEM    = UTC
MEAN_ELEMENT_THEORY = SGP/SGP4

EPOCH          = 2026-03-12T04:00:01.999584
MEAN_MOTION    = 15.77664339
ECCENTRICITY   = .0001913
INCLINATION    = 42.9992
RA_OF_ASC_NODE = 256.3446
ARG_OF_PERICENTER = 277.4503
MEAN_ANOMALY   = 140.9078

EPHEMERIS_TYPE = 0
CLASSIFICATION_TYPE = U
NORAD_CAT_ID   = 67823
ELEMENT_SET_NO = 999
REV_AT_EPOCH   = 506
BSTAR          = -.13035E-1
MEAN_MOTION_DOT = -.1951178E-1
MEAN_MOTION_DDOT = 0

CCSDS_OMM_VERS = 2.0
CREATION_DATE  = 
ORIGINATOR     = 

OBJECT_NAME    = STARLINK-36647
OBJECT_ID      = 2026-033D
CENTER_NAME    = EARTH
REF_FRAME      = TEME
TIME_SYSTEM    = UTC
MEAN_ELEMENT_THEORY = SGP/SGP4

EPOCH          = 2026-03-12T04:00:01.999584
MEAN_MOTION    = 15.75782385
ECCENTRICITY   = .0001837
INCLINATION    = 42.9991
RA_OF_ASC_NODE = 256.3554
ARG_OF_PERICENTER = 273.3058
MEAN_ANOMALY   = 140.6874

EPHEMERIS_TYPE = 0
CLASSIFICATION_TYPE = U
NORAD_CAT_ID   = 67824
ELEMENT_SET_NO = 999
REV_AT_EPOCH   = 506
BSTAR          = -.14154E-1
MEAN_MOTION_DOT = -.1947249E-1
MEAN_MOTION_DDOT = 0

